CTC1_L_00228016-03
1 17680U 24249TE  26037.47803241  .00000000  00000+0  00000-0 0  9999
2 17680  45.0000 180.0000 0000000   0.0000   0.0000 12.65579224    16
CTC1_L_00228016-04
1 17681U 23289ZY  26037.47803241  .00000000  00000+0  00000-0 0  9993
2 17681  45.0000 180.0000 0000000   0.0000  90.0000 12.65579224    16
CTC1_L_00228017-01
1 17682U 26276XN  26037.47803241  .00000000  00000+0  00000-0 0  9993
2 17682  45.0000 192.0000 0000000   0.0000 192.0000 12.65579224    13
CTC1_L_00228017-02
1 17683U 26585JD  26037.47803241  .00000000  00000+0  00000-0 0  9997
2 17683  45.0000 192.0000 0000000   0.0000 282.0000 12.65579224    14
CTC1_L_00228017-03
1 17684U 26924BC  26037.47803241  .00000000  00000+0  00000-0 0  9995
2 17684  45.0000 192.0000 0000000   0.0000  12.0000 12.65579224    16
CTC1_L_00228017-04
1 17685U 26077PI  26037.47803241  .00000000  00000+0  00000-0 0  9995
2 17685  45.0000 192.0000 0000000   0.0000 102.0000 12.65579224    17
CTC1_L_00228018-01
1 17686U 26266NK  26037.47803241  .00000000  00000+0  00000-0 0  9996
2 17686  45.0000 204.0000 0000000   0.0000 204.0000 12.65579224    15
CTC1_L_00228018-02
1 17687U 25067JL  26037.47803241  .00000000  00000+0  00000-0 0  9995
2 17687  45.0000 204.0000 0000000   0.0000 294.0000 12.65579224    15
CTC1_L_00228018-03
1 17688U 26552WW  26037.47803241  .00000000  00000+0  00000-0 0  9996
2 17688  45.0000 204.0000 0000000   0.0000  24.0000 12.65579224    17
CTC1_L_00228018-04
1 17689U 23728QW  26037.47803241  .00000000  00000+0  00000-0 0  9999
2 17689  45.0000 204.0000 0000000   0.0000 114.0000 12.65579224    18
CTC1_L_00228019-01
1 17690U 26123VR  26037.47803241  .00000000  00000+0  00000-0 0  9993
2 17690  45.0000 216.0000 0000000   0.0000 216.0000 12.65579224    16
CTC1_L_00228019-02
1 17691U 25101JV  26037.47803241  .00000000  00000+0  00000-0 0  9999
2 17691  45.0000 216.0000 0000000   0.0000 306.0000 12.65579224    17
CTC1_L_00228019-03
1 17692U 25662HK  26037.47803241  .00000000  00000+0  00000-0 0  9992
2 17692  45.0000 216.0000 0000000   0.0000  36.0000 12.65579224    18
CTC1_L_00228019-04
1 17693U 22875UU  26037.47803241  .00000000  00000+0  00000-0 0  9996
2 17693  45.0000 216.0000 0000000   0.0000 126.0000 12.65579224    19
CTC1_L_00228020-01
1 17694U 26926EJ  26037.47803241  .00000000  00000+0  00000-0 0  9998
2 17694  45.0000 228.0000 0000000   0.0000 228.0000 12.65579224    16
CTC1_L_00228020-02
1 17695U 26263C   26037.47803241  .00000000  00000+0  00000-0 0  9993
2 17695  45.0000 228.0000 0000000   0.0000 318.0000 12.65579224    17
CTC1_L_00228020-03
1 17696U 22330YB  26037.47803241  .00000000  00000+0  00000-0 0  9995
2 17696  45.0000 228.0000 0000000   0.0000  48.0000 12.65579224    18
CTC1_L_00228020-04
1 17697U 22823NP  26037.47803241  .00000000  00000+0  00000-0 0  9993
2 17697  45.0000 228.0000 0000000   0.0000 138.0000 12.65579224    19
CTC1_L_00228021-01
1 17698U 24858SZ  26037.47803241  .00000000  00000+0  00000-0 0  9994
2 17698  45.0000 240.0000 0000000   0.0000 240.0000 12.65579224    18
CTC1_L_00228021-02
1 17699U 26027GL  26037.47803241  .00000000  00000+0  00000-0 0  9995
2 17699  45.0000 240.0000 0000000   0.0000 330.0000 12.65579224    19
CTC1_L_00228021-03
1 17700U 23744QL  26037.47803241  .00000000  00000+0  00000-0 0  9991
2 17700  45.0000 240.0000 0000000   0.0000  60.0000 12.65579224    12
CTC1_L_00228021-04
1 17701U 24088LA  26037.47803241  .00000000  00000+0  00000-0 0  9994
2 17701  45.0000 240.0000 0000000   0.0000 150.0000 12.65579224    13
CTC1_L_00228022-01
1 17702U 22216QY  26037.47803241  .00000000  00000+0  00000-0 0  9996
2 17702  45.0000 252.0000 0000000   0.0000 252.0000 12.65579224    10
CTC1_L_00228022-02
1 17703U 25514EQ  26037.47803241  .00000000  00000+0  00000-0 0  9991
2 17703  45.0000 252.0000 0000000   0.0000 342.0000 12.65579224    11
CTC1_L_00228022-03
1 17704U 26582QF  26037.47803241  .00000000  00000+0  00000-0 0  9998
2 17704  45.0000 252.0000 0000000   0.0000  72.0000 12.65579224    12
CTC1_L_00228022-04
1 17705U 22837GB  26037.47803241  .00000000  00000+0  00000-0 0  9998
2 17705  45.0000 252.0000 0000000   0.0000 162.0000 12.65579224    13
CTC1_L_00228023-01
1 17706U 23817VZ  26037.47803241  .00000000  00000+0  00000-0 0  9998
2 17706  45.0000 264.0000 0000000   0.0000 264.0000 12.65579224    10
CTC1_L_00228023-02
1 17707U 22302SV  26037.47803241  .00000000  00000+0  00000-0 0  9997
2 17707  45.0000 264.0000 0000000   0.0000 354.0000 12.65579224    11
CTC1_L_00228023-03
1 17708U 23190ZU  26037.47803241  .00000000  00000+0  00000-0 0  9994
2 17708  45.0000 264.0000 0000000   0.0000  84.0000 12.65579224    12
CTC1_L_00228023-04
1 17709U 26064ZU  26037.47803241  .00000000  00000+0  00000-0 0  9998
2 17709  45.0000 264.0000 0000000   0.0000 174.0000 12.65579224    13
CTC1_L_00228024-01
1 17710U 25041EY  26037.47803241  .00000000  00000+0  00000-0 0  9994
2 17710  45.0000 276.0000 0000000   0.0000 276.0000 12.65579224    11
CTC1_L_00228024-02
1 17711U 22280VK  26037.47803241  .00000000  00000+0  00000-0 0  9997
2 17711  45.0000 276.0000 0000000   0.0000   6.0000 12.65579224    13
CTC1_L_00228024-03
1 17712U 25731HQ  26037.47803241  .00000000  00000+0  00000-0 0  9992
2 17712  45.0000 276.0000 0000000   0.0000  96.0000 12.65579224    13
CTC1_L_00228024-04
1 17713U 25016GH  26037.47803241  .00000000  00000+0  00000-0 0  9999
2 17713  45.0000 276.0000 0000000   0.0000 186.0000 12.65579224    14
CTC1_L_00228025-01
1 17714U 26767CD  26037.47803241  .00000000  00000+0  00000-0 0  9994
2 17714  45.0000 288.0000 0000000   0.0000 288.0000 12.65579224    11
CTC1_L_00228025-02
1 17715U 26154HM  26037.47803241  .00000000  00000+0  00000-0 0  9995
2 17715  45.0000 288.0000 0000000   0.0000  18.0000 12.65579224    13
CTC1_L_00228025-03
1 17716U 26625QI  26037.47803241  .00000000  00000+0  00000-0 0  9999
2 17716  45.0000 288.0000 0000000   0.0000 108.0000 12.65579224    14
CTC1_L_00228025-04
1 17717U 26463QJ  26037.47803241  .00000000  00000+0  00000-0 0  9990
2 17717  45.0000 288.0000 0000000   0.0000 198.0000 12.65579224    14
CTC1_L_00228026-01
1 17718U 25117BY  26037.47803241  .00000000  00000+0  00000-0 0  9996
2 17718  45.0000 300.0000 0000000   0.0000 300.0000 12.65579224    15
CTC1_L_00228026-02
1 17719U 26169PQ  26037.47803241  .00000000  00000+0  00000-0 0  9995
2 17719  45.0000 300.0000 0000000   0.0000  30.0000 12.65579224    16
CTC1_L_00228026-03
1 17720U 22977NR  26037.47803241  .00000000  00000+0  00000-0 0  9990
2 17720  45.0000 300.0000 0000000   0.0000 120.0000 12.65579224    18
CTC1_L_00228026-04
1 17721U 25801IL  26037.47803241  .00000000  00000+0  00000-0 0  9990
2 17721  45.0000 300.0000 0000000   0.0000 210.0000 12.65579224    19
CTC1_L_00228027-01
1 17722U 26239SA  26037.47803241  .00000000  00000+0  00000-0 0  9997
2 17722  45.0000 312.0000 0000000   0.0000 312.0000 12.65579224    16
CTC1_L_00228027-02
1 17723U 24138KQ  26037.47803241  .00000000  00000+0  00000-0 0  9994
2 17723  45.0000 312.0000 0000000   0.0000  42.0000 12.65579224    17
CTC1_L_00228027-03
1 17724U 22571RF  26037.47803241  .00000000  00000+0  00000-0 0  9994
2 17724  45.0000 312.0000 0000000   0.0000 132.0000 12.65579224    18
CTC1_L_00228027-04
1 17725U 24127NX  26037.47803241  .00000000  00000+0  00000-0 0  9994
2 17725  45.0000 312.0000 0000000   0.0000 222.0000 12.65579224    19
CTC1_L_00228028-01
1 17726U 24859MH  26037.47803241  .00000000  00000+0  00000-0 0  9997
2 17726  45.0000 324.0000 0000000   0.0000 324.0000 12.65579224    16
CTC1_L_00228028-02
1 17727U 22814TI  26037.47803241  .00000000  00000+0  00000-0 0  9997
2 17727  45.0000 324.0000 0000000   0.0000  54.0000 12.65579224    17
CTC1_L_00228028-03
1 17728U 24346BH  26037.47803241  .00000000  00000+0  00000-0 0  9990
2 17728  45.0000 324.0000 0000000   0.0000 144.0000 12.65579224    18
CTC1_L_00228028-04
1 17729U 24740HG  26037.47803241  .00000000  00000+0  00000-0 0  9999
2 17729  45.0000 324.0000 0000000   0.0000 234.0000 12.65579224    19
CTC1_L_00228029-01
1 17730U 23062UI  26037.47803241  .00000000  00000+0  00000-0 0  9997
2 17730  45.0000 336.0000 0000000   0.0000 336.0000 12.65579224    17
CTC1_L_00228029-02
1 17731U 26166NQ  26037.47803241  .00000000  00000+0  00000-0 0  9996
2 17731  45.0000 336.0000 0000000   0.0000  66.0000 12.65579224    18
CTC1_L_00228029-03
1 17732U 26087YF  26037.47803241  .00000000  00000+0  00000-0 0  9999
2 17732  45.0000 336.0000 0000000   0.0000 156.0000 12.65579224    19
CTC1_L_00228029-04
1 17733U 23863YV  26037.47803241  .00000000  00000+0  00000-0 0  9999
2 17733  45.0000 336.0000 0000000   0.0000 246.0000 12.65579224    10
CTC1_L_00228030-01
1 17734U 22281EQ  26037.47803241  .00000000  00000+0  00000-0 0  9993
2 17734  45.0000 348.0000 0000000   0.0000 348.0000 12.65579224    17
CTC1_L_00228030-02
1 17735U 22225QK  26037.47803241  .00000000  00000+0  00000-0 0  9992
2 17735  45.0000 348.0000 0000000   0.0000  78.0000 12.65579224    18
CTC1_L_00228030-03
1 17736U 26407CD  26037.47803241  .00000000  00000+0  00000-0 0  9999
2 17736  45.0000 348.0000 0000000   0.0000 168.0000 12.65579224    19
CTC1_L_00228030-04
1 17737U 22607JX  26037.47803241  .00000000  00000+0  00000-0 0  9998
2 17737  45.0000 348.0000 0000000   0.0000 258.0000 12.65579224    10
